{
  "type": "FeatureCollection",
  "features": [
    {
      "type": "Feature",
      "properties": {
        "norad_id": 49537,
        "name": "COSMOS 1408 DEB",
        "group": "cosmos-1408-debris",
        "lat": -24.96726703723445,
        "lon": 100.86543451747998,
        "alt_km": 109.24491827815564,
        "timestamp": "2025-12-03T17:47:50.988139+00:00",
        "meta_object_name": "COSMOS 1408 DEB",
        "meta_object_id": "1982-092AA",
        "meta_epoch": "2025-12-01T10:29:21.651360",
        "meta_mean_motion": 16.33498888,
        "meta_eccentricity": 0.00127731,
        "meta_inclination": 82.5092,
        "meta_ra_of_asc_node": 107.1368,
        "meta_arg_of_pericenter": 299.8571,
        "meta_mean_anomaly": 60.1455,
        "meta_ephemeris_type": 0,
        "meta_classification_type": "U",
        "meta_norad_cat_id": 49537,
        "meta_element_set_no": 999,
        "meta_rev_at_epoch": 22403,
        "meta_bstar": 0.00094222941,
        "meta_mean_motion_dot": 0.05878558,
        "meta_mean_motion_ddot": -1.252052e-06,
        "tle_line1": "1 49537U 82092AA  25335.43705615  .05878558 -12521-5  94223-3 0  9994",
        "tle_line2": "2 49537  82.5092 107.1368 0012773 299.8571  60.1455 16.33498888224033"
      },
      "geometry": {
        "type": "Point",
        "coordinates": [
          100.86543451747998,
          -24.96726703723445
        ]
      }
    },
    {
      "type": "Feature",
      "properties": {
        "norad_id": 50032,
        "name": "COSMOS 1408 DEB",
        "group": "cosmos-1408-debris",
        "lat": 48.03184717930179,
        "lon": -120.61811451498903,
        "alt_km": 429.3735372165147,
        "timestamp": "2025-12-03T17:47:50.988160+00:00",
        "meta_object_name": "COSMOS 1408 DEB",
        "meta_object_id": "1982-092RU",
        "meta_epoch": "2025-12-03T12:34:05.444832",
        "meta_mean_motion": 15.45544262,
        "meta_eccentricity": 0.0014683,
        "meta_inclination": 82.5656,
        "meta_ra_of_asc_node": 67.9532,
        "meta_arg_of_pericenter": 244.7236,
        "meta_mean_anomaly": 115.2492,
        "meta_ephemeris_type": 0,
        "meta_classification_type": "U",
        "meta_norad_cat_id": 50032,
        "meta_element_set_no": 999,
        "meta_rev_at_epoch": 22461,
        "meta_bstar": 0.00015926,
        "meta_mean_motion_dot": 7.716e-05,
        "meta_mean_motion_ddot": 0,
        "tle_line1": "1 50032U 82092RU  25337.52367413  .00007716  00000+0  15926-3 0  9998",
        "tle_line2": "2 50032  82.5656  67.9532 0014683 244.7236 115.2492 15.45544262224613"
      },
      "geometry": {
        "type": "Point",
        "coordinates": [
          -120.61811451498903,
          48.03184717930179
        ]
      }
    },
    {
      "type": "Feature",
      "properties": {
        "norad_id": 50058,
        "name": "COSMOS 1408 DEB",
        "group": "cosmos-1408-debris",
        "lat": 70.02025901007117,
        "lon": -122.15235093580333,
        "alt_km": 361.2648903434556,
        "timestamp": "2025-12-03T17:47:50.988174+00:00",
        "meta_object_name": "COSMOS 1408 DEB",
        "meta_object_id": "1982-092SW",
        "meta_epoch": "2025-12-03T08:07:02.387712",
        "meta_mean_motion": 15.63243355,
        "meta_eccentricity": 0.001629,
        "meta_inclination": 82.6136,
        "meta_ra_of_asc_node": 79.1744,
        "meta_arg_of_pericenter": 132.3779,
        "meta_mean_anomaly": 227.8861,
        "meta_ephemeris_type": 0,
        "meta_classification_type": "U",
        "meta_norad_cat_id": 50058,
        "meta_element_set_no": 999,
        "meta_rev_at_epoch": 22657,
        "meta_bstar": 0.00042304,
        "meta_mean_motion_dot": 0.00039112,
        "meta_mean_motion_ddot": 0,
        "tle_line1": "1 50058U 82092SW  25337.33822208  .00039112  00000+0  42304-3 0  9998",
        "tle_line2": "2 50058  82.6136  79.1744 0016290 132.3779 227.8861 15.63243355226571"
      },
      "geometry": {
        "type": "Point",
        "coordinates": [
          -122.15235093580333,
          70.02025901007117
        ]
      }
    },
    {
      "type": "Feature",
      "properties": {
        "norad_id": 50404,
        "name": "COSMOS 1408 DEB",
        "group": "cosmos-1408-debris",
        "lat": 61.78390057152602,
        "lon": -120.9782205729977,
        "alt_km": 643.3677897160023,
        "timestamp": "2025-12-03T17:47:50.988186+00:00",
        "meta_object_name": "COSMOS 1408 DEB",
        "meta_object_id": "1982-092ADS",
        "meta_epoch": "2025-12-03T03:12:53.924544",
        "meta_mean_motion": 15.11741121,
        "meta_eccentricity": 0.01766229,
        "meta_inclination": 82.2064,
        "meta_ra_of_asc_node": 224.8525,
        "meta_arg_of_pericenter": 232.1925,
        "meta_mean_anomaly": 126.3205,
        "meta_ephemeris_type": 0,
        "meta_classification_type": "U",
        "meta_norad_cat_id": 50404,
        "meta_element_set_no": 999,
        "meta_rev_at_epoch": 21048,
        "meta_bstar": 0.0034989906,
        "meta_mean_motion_dot": 0.00088069,
        "meta_mean_motion_ddot": 0,
        "tle_line1": "1 50404U 82092ADS 25337.13395746  .00088069  00000+0  34990-2 0  9999",
        "tle_line2": "2 50404  82.2064 224.8525 0176622 232.1925 126.3205 15.11741121210481"
      },
      "geometry": {
        "type": "Point",
        "coordinates": [
          -120.9782205729977,
          61.78390057152602
        ]
      }
    },
    {
      "type": "Feature",
      "properties": {
        "norad_id": 50621,
        "name": "COSMOS 1408 DEB",
        "group": "cosmos-1408-debris",
        "lat": 3.926884571143327,
        "lon": 84.05529097725346,
        "alt_km": 421.6284625496919,
        "timestamp": "2025-12-03T17:47:50.988197+00:00",
        "meta_object_name": "COSMOS 1408 DEB",
        "meta_object_id": "1982-092ALR",
        "meta_epoch": "2025-12-03T06:58:32.674080",
        "meta_mean_motion": 15.55896354,
        "meta_eccentricity": 0.0028874,
        "meta_inclination": 82.5704,
        "meta_ra_of_asc_node": 84.0109,
        "meta_arg_of_pericenter": 187.0986,
        "meta_mean_anomaly": 172.9864,
        "meta_ephemeris_type": 0,
        "meta_classification_type": "U",
        "meta_norad_cat_id": 50621,
        "meta_element_set_no": 999,
        "meta_rev_at_epoch": 22103,
        "meta_bstar": 0.00050325,
        "meta_mean_motion_dot": 0.0003565,
        "meta_mean_motion_ddot": 0,
        "tle_line1": "1 50621U 82092ALR 25337.29065595  .00035650  00000+0  50325-3 0  9992",
        "tle_line2": "2 50621  82.5704  84.0109 0028874 187.0986 172.9864 15.55896354221038"
      },
      "geometry": {
        "type": "Point",
        "coordinates": [
          84.05529097725346,
          3.926884571143327
        ]
      }
    }
  ]
}